2025-313BD              
1 67299U 25313BD  26068.62968741  .00081010  00000+0  27634-2 0  9995
2 67299  97.3970 145.2850 0007287 333.4514  26.6352 15.30002360 10838
STARLINK-36482          
1 67309U 26002E   26068.06261436  .00043047  00000+0  15648-2 0  9998
2 67309  43.0008 328.7520 0001360 281.0534  79.0165 15.27577953 10989
